start=new Date('2022-12-23T00:00:00.000Z').valueOf();
sats=[{"SITE":"AFETR","OBJECT_TYPE":"PAYLOAD","TLE_LINE2":"2 47560  53.0539 228.7371 0001389  97.0504 263.0643 15.06388786104231","PERIOD":"95.593","TIME_SYSTEM":"UTC","CLASSIFICATION_TYPE":"U","OBJECT_NAME":"STARLINK-1959","MEAN_ANOMALY":"263.0643","EPOCH":"2022-12-22T09:25:19.795008","BSTAR":"-0.00014682000000","OBJECT_ID":"2021-009N","REF_FRAME":"TEME","ELEMENT_SET_NO":"999","EPHEMERIS_TYPE":"0","RA_OF_ASC_NODE":"228.7371","PERIAPSIS":"546.286","CENTER_NAME":"EARTH","RCS_SIZE":"LARGE","TLE_LINE1":"1 47560U 21009N   22356.39259022 -.00002467  00000-0 -14682-3 0  9999","MEAN_ELEMENT_THEORY":"SGP4","GP_ID":"221199103","DECAY_DATE":null,"MEAN_MOTION":"15.06388786","INCLINATION":"53.0539","MEAN_MOTION_DDOT":"0.0000000000000","COUNTRY_CODE":"US","ECCENTRICITY":"0.00013890","APOAPSIS":"548.210","ARG_OF_PERICENTER":"97.0504","LAUNCH_DATE":"2021-02-04","REV_AT_EPOCH":"10423","SEMIMAJOR_AXIS":"6925.383","FILE":"3719197","MEAN_MOTION_DOT":"-0.00002467","NORAD_CAT_ID":"47560"},{"ELEMENT_SET_NO":"999","REF_FRAME":"TEME","OBJECT_ID":"2021-009P","BSTAR":"0.00050261000000","EPOCH":"2022-12-22T20:16:53.062176","MEAN_ANOMALY":"266.8408","TIME_SYSTEM":"UTC","CLASSIFICATION_TYPE":"U","OBJECT_NAME":"STARLINK-1960","PERIOD":"95.592","TLE_LINE2":"2 47561  53.0528 246.7254 0001512  93.2754 266.8408 15.06395116104025","OBJECT_TYPE":"PAYLOAD","SITE":"AFETR","FILE":"3719655","SEMIMAJOR_AXIS":"6925.364","MEAN_MOTION_DOT":"0.00007212","NORAD_CAT_ID":"47561","LAUNCH_DATE":"2021-02-04","REV_AT_EPOCH":"10402","APOAPSIS":"548.276","ARG_OF_PERICENTER":"93.2754","ECCENTRICITY":"0.00015120","COUNTRY_CODE":"US","MEAN_MOTION_DDOT":"0.0000000000000","DECAY_DATE":null,"GP_ID":"221234234","MEAN_MOTION":"15.06395116","MEAN_ELEMENT_THEORY":"SGP4","INCLINATION":"53.0528","TLE_LINE1":"1 47561U 21009P   22356.84505859  .00007212  00000-0  50261-3 0  9996","CENTER_NAME":"EARTH","PERIAPSIS":"546.181","RCS_SIZE":"LARGE","RA_OF_ASC_NODE":"246.7254","EPHEMERIS_TYPE":"0"},{"EPOCH":"2022-12-22T22:13:39.709920","MEAN_ANOMALY":"261.3582","OBJECT_NAME":"STARLINK-1961","CLASSIFICATION_TYPE":"U","TIME_SYSTEM":"UTC","REF_FRAME":"TEME","ELEMENT_SET_NO":"999","OBJECT_ID":"2021-009Q","BSTAR":"0.00030075000000","OBJECT_TYPE":"PAYLOAD","SITE":"AFETR","PERIOD":"95.592","TLE_LINE2":"2 47562  53.0543 246.3660 0001561  98.7583 261.3582 15.06396842104631","APOAPSIS":"548.304","ARG_OF_PERICENTER":"98.7583","ECCENTRICITY":"0.00015610","COUNTRY_CODE":"US","SEMIMAJOR_AXIS":"6925.358","FILE":"3719553","MEAN_MOTION_DOT":"0.00004201","NORAD_CAT_ID":"47562","LAUNCH_DATE":"2021-02-04","REV_AT_EPOCH":"10463","PERIAPSIS":"546.142","CENTER_NAME":"EARTH","RCS_SIZE":"LARGE","RA_OF_ASC_NODE":"246.3660","EPHEMERIS_TYPE":"0","MEAN_MOTION_DDOT":"0.0000000000000","GP_ID":"221210714","DECAY_DATE":null,"MEAN_ELEMENT_THEORY":"SGP4","MEAN_MOTION":"15.06396842","INCLINATION":"53.0543","TLE_LINE1":"1 47562U 21009Q   22356.92615405  .00004201  00000-0  30075-3 0  9991"},{"APOAPSIS":"548.195","ARG_OF_PERICENTER":"71.4608","ECCENTRICITY":"0.00014220","COUNTRY_CODE":"US","FILE":"3719655","SEMIMAJOR_AXIS":"6925.345","MEAN_MOTION_DOT":"0.00002779","NORAD_CAT_ID":"47563","LAUNCH_DATE":"2021-02-04","REV_AT_EPOCH":"10402","CENTER_NAME":"EARTH","PERIAPSIS":"546.225","RCS_SIZE":"LARGE","RA_OF_ASC_NODE":"246.5681","EPHEMERIS_TYPE":"0","MEAN_MOTION_DDOT":"0.0000000000000","GP_ID":"221235736","DECAY_DATE":null,"MEAN_ELEMENT_THEORY":"SGP4","MEAN_MOTION":"15.06401193","INCLINATION":"53.0529","TLE_LINE1":"1 47563U 21009R   22356.88191394  .00002779  00000-0  20538-3 0  9994","EPOCH":"2022-12-22T21:09:57.364416","MEAN_ANOMALY":"288.6535","OBJECT_NAME":"STARLINK-1962","CLASSIFICATION_TYPE":"U","TIME_SYSTEM":"UTC","ELEMENT_SET_NO":"999","REF_FRAME":"TEME","OBJECT_ID":"2021-009R","BSTAR":"0.00020538000000","OBJECT_TYPE":"PAYLOAD","SITE":"AFETR","PERIOD":"95.592","TLE_LINE2":"2 47563  53.0529 246.5681 0001422  71.4608 288.6535 15.06401193104022"},{"OBJECT_TYPE":"PAYLOAD","SITE":"AFETR","TLE_LINE2":"2 47564  53.0539 236.5670 0001074 124.7348 235.3742 15.06317554104168","PERIOD":"95.597","EPOCH":"2022-12-22T21:11:21.407424","OBJECT_NAME":"STARLINK-1963","CLASSIFICATION_TYPE":"U","TIME_SYSTEM":"UTC","MEAN_ANOMALY":"235.3742","OBJECT_ID":"2021-009S","ELEMENT_SET_NO":"999","REF_FRAME":"TEME","BSTAR":"0.00297540000000","RA_OF_ASC_NODE":"236.5670","RCS_SIZE":"LARGE","CENTER_NAME":"EARTH","PERIAPSIS":"546.722","EPHEMERIS_TYPE":"0","MEAN_MOTION_DDOT":"0.0000000000000","TLE_LINE1":"1 47564U 21009S   22356.88288666  .00044217  00000-0  29754-2 0  9995","INCLINATION":"53.0539","GP_ID":"221234484","DECAY_DATE":null,"MEAN_MOTION":"15.06317554","MEAN_ELEMENT_THEORY":"SGP4","ARG_OF_PERICENTER":"124.7348","APOAPSIS":"548.210","COUNTRY_CODE":"US","ECCENTRICITY":"0.00010740","REV_AT_EPOCH":"10416","LAUNCH_DATE":"2021-02-04","NORAD_CAT_ID":"47564","MEAN_MOTION_DOT":"0.00044217","FILE":"3719655","SEMIMAJOR_AXIS":"6925.601"},{"ARG_OF_PERICENTER":"89.3426","APOAPSIS":"548.105","COUNTRY_CODE":"US","ECCENTRICITY":"0.00013250","REV_AT_EPOCH":"10416","LAUNCH_DATE":"2021-02-04","NORAD_CAT_ID":"47565","MEAN_MOTION_DOT":"0.00001027","FILE":"3719655","SEMIMAJOR_AXIS":"6925.323","RA_OF_ASC_NODE":"236.5745","RCS_SIZE":"LARGE","CENTER_NAME":"EARTH","PERIAPSIS":"546.270","EPHEMERIS_TYPE":"0","MEAN_MOTION_DDOT":"0.0000000000000","TLE_LINE1":"1 47565U 21009T   22356.87915101  .00001027  00000-0  87832-4 0  9991","INCLINATION":"53.0535","DECAY_DATE":null,"GP_ID":"221234734","MEAN_MOTION":"15.06408482","MEAN_ELEMENT_THEORY":"SGP4","EPOCH":"2022-12-22T21:05:58.647264","OBJECT_NAME":"STARLINK-1964","CLASSIFICATION_TYPE":"U","TIME_SYSTEM":"UTC","MEAN_ANOMALY":"270.7715","OBJECT_ID":"2021-009T","ELEMENT_SET_NO":"999","REF_FRAME":"TEME","BSTAR":"0.00008783200000","OBJECT_TYPE":"PAYLOAD","SITE":"AFETR","TLE_LINE2":"2 47565  53.0535 236.5745 0001325  89.3426 270.7715 15.06408482104164","PERIOD":"95.592"},{"EPOCH":"2022-12-22T20:56:41.257536","MEAN_ANOMALY":"274.8702","TIME_SYSTEM":"UTC","CLASSIFICATION_TYPE":"U","OBJECT_NAME":"STARLINK-1965","ELEMENT_SET_NO":"999","REF_FRAME":"TEME","OBJECT_ID":"2021-009U","BSTAR":"0.00003943000000","OBJECT_TYPE":"PAYLOAD","SITE":"AFETR","PERIOD":"95.593","TLE_LINE2":"2 47566  53.0549 226.6112 0001450  85.2453 274.8702 15.06390877104307","ARG_OF_PERICENTER":"85.2453","APOAPSIS":"548.246","ECCENTRICITY":"0.00014500","COUNTRY_CODE":"US","MEAN_MOTION_DOT":"0.00000306","NORAD_CAT_ID":"47566","SEMIMAJOR_AXIS":"6925.377","FILE":"3719655","REV_AT_EPOCH":"10430","LAUNCH_DATE":"2021-02-04","RCS_SIZE":"LARGE","PERIAPSIS":"546.237","CENTER_NAME":"EARTH","RA_OF_ASC_NODE":"226.6112","EPHEMERIS_TYPE":"0","MEAN_MOTION_DDOT":"0.0000000000000","INCLINATION":"53.0549","GP_ID":"221234986","DECAY_DATE":null,"MEAN_MOTION":"15.06390877","MEAN_ELEMENT_THEORY":"SGP4","TLE_LINE1":"1 47566U 21009U   22356.87269974  .00000306  00000-0  39430-4 0  9992"},{"ECCENTRICITY":"0.00013730","COUNTRY_CODE":"US","APOAPSIS":"548.178","ARG_OF_PERICENTER":"92.6908","FILE":"3719554","SEMIMAJOR_AXIS":"6925.362","MEAN_MOTION_DOT":"0.00005828","NORAD_CAT_ID":"47567","LAUNCH_DATE":"2021-02-04","REV_AT_EPOCH":"10434","EPHEMERIS_TYPE":"0","PERIAPSIS":"546.276","CENTER_NAME":"EARTH","RCS_SIZE":"LARGE","RA_OF_ASC_NODE":"266.4413","GP_ID":"221210730","MEAN_ELEMENT_THEORY":"SGP4","DECAY_DATE":null,"MEAN_MOTION":"15.06395532","INCLINATION":"53.0551","TLE_LINE1":"1 47567U 21009V   22356.90956503  .00005828  00000-0  40988-3 0  9991","MEAN_MOTION_DDOT":"0.0000000000000","MEAN_ANOMALY":"267.4238","TIME_SYSTEM":"UTC","CLASSIFICATION_TYPE":"U","OBJECT_NAME":"STARLINK-1966","EPOCH":"2022-12-22T21:49:46.418592","BSTAR":"0.00040988000000","ELEMENT_SET_NO":"999","REF_FRAME":"TEME","OBJECT_ID":"2021-009V","SITE":"AFETR","OBJECT_TYPE":"PAYLOAD","PERIOD":"95.592","TLE_LINE2":"2 47567  53.0551 266.4413 0001373  92.6908 267.4238 15.06395532104347"},{"CLASSIFICATION_TYPE":"U","TIME_SYSTEM":"UTC","OBJECT_NAME":"STARLINK-1967","MEAN_ANOMALY":"294.6964","EPOCH":"2022-12-22T11:18:08.977536","BSTAR":"-0.00005023100000","OBJECT_ID":"2021-009W","ELEMENT_SET_NO":"999","REF_FRAME":"TEME","SITE":"AFETR","OBJECT_TYPE":"PAYLOAD","TLE_LINE2":"2 47568  53.0541 268.4151 0001458  65.4177 294.6964 15.06394318103683","PERIOD":"95.593","COUNTRY_CODE":"US","ECCENTRICITY":"0.00014580","ARG_OF_PERICENTER":"65.4177","APOAPSIS":"548.241","REV_AT_EPOCH":"10368","LAUNCH_DATE":"2021-02-04","NORAD_CAT_ID":"47568","MEAN_MOTION_DOT":"-0.00001029","FILE":"3719197","SEMIMAJOR_AXIS":"6925.366","EPHEMERIS_TYPE":"0","RA_OF_ASC_NODE":"268.4151","RCS_SIZE":"LARGE","CENTER_NAME":"EARTH","PERIAPSIS":"546.221","TLE_LINE1":"1 47568U 21009W   22356.47093724 -.00001029  00000-0 -50231-4 0  9995","INCLINATION":"53.0541","MEAN_MOTION":"15.06394318","GP_ID":"221199104","DECAY_DATE":null,"MEAN_ELEMENT_THEORY":"SGP4","MEAN_MOTION_DDOT":"0.0000000000000"},{"BSTAR":"0.00036396000000","ELEMENT_SET_NO":"999","REF_FRAME":"TEME","OBJECT_ID":"2021-009Y","MEAN_ANOMALY":"268.0623","TIME_SYSTEM":"UTC","CLASSIFICATION_TYPE":"U","OBJECT_NAME":"STARLINK-1969","EPOCH":"2022-12-22T22:16:18.204672","PERIOD":"95.592","TLE_LINE2":"2 47570  53.0530 226.3516 0001578  92.0547 268.0623 15.06398624104921","SITE":"AFETR","OBJECT_TYPE":"PAYLOAD","NORAD_CAT_ID":"47570","MEAN_MOTION_DOT":"0.00005144","SEMIMAJOR_AXIS":"6925.353","FILE":"3719554","REV_AT_EPOCH":"10492","LAUNCH_DATE":"2021-02-04","ECCENTRICITY":"0.00015780","COUNTRY_CODE":"US","ARG_OF_PERICENTER":"92.0547","APOAPSIS":"548.311","INCLINATION":"53.0530","GP_ID":"221210937","MEAN_ELEMENT_THEORY":"SGP4","DECAY_DATE":null,"MEAN_MOTION":"15.06398624","TLE_LINE1":"1 47570U 21009Y   22356.92798848  .00005144  00000-0  36396-3 0  9992","MEAN_MOTION_DDOT":"0.0000000000000","EPHEMERIS_TYPE":"0","RCS_SIZE":"LARGE","PERIAPSIS":"546.125","CENTER_NAME":"EARTH","RA_OF_ASC_NODE":"226.3516"}];
